[{"OBJECT_NAME":"STARLINK-3671","OBJECT_ID":"2022-025S","EPOCH":"2026-03-09T05:20:16.096128","MEAN_MOTION":15.06419252,"ECCENTRICITY":0.00012793,"INCLINATION":53.0555,"RA_OF_ASC_NODE":32.9827,"ARG_OF_PERICENTER":85.7443,"MEAN_ANOMALY":274.3692,"EPHEMERIS_TYPE":0,"CLASSIFICATION_TYPE":"U","NORAD_CAT_ID":51972,"ELEMENT_SET_NO":999,"REV_AT_EPOCH":22085,"BSTAR":0.0002181368,"MEAN_MOTION_DOT":2.971e-5,"MEAN_MOTION_DDOT":0},{"OBJECT_NAME":"OKEAN-3","OBJECT_ID":"1991-039A","EPOCH":"2026-03-09T19:29:17.530944","MEAN_MOTION":15.0480588,"ECCENTRICITY":0.00139411,"INCLINATION":82.519,"RA_OF_ASC_NODE":336.7249,"ARG_OF_PERICENTER":337.9296,"MEAN_ANOMALY":22.1329,"EPHEMERIS_TYPE":0,"CLASSIFICATION_TYPE":"U","NORAD_CAT_ID":21397,"ELEMENT_SET_NO":999,"REV_AT_EPOCH":86505,"BSTAR":0.00031884915,"MEAN_MOTION_DOT":4.536e-5,"MEAN_MOTION_DDOT":0}]
